QIANFAN-89              
1 63175U 25046S   25229.55822460  .00000140  00000+0  19753-3 0  9993
2 63175  88.9864 332.1196 0018559 105.2039 255.1166 13.50967947 31584
QIANFAN-90              
1 63176U 25046T   25229.51295904  .00000103  00000+0  14141-3 0  9992
2 63176  88.9865 332.0964 0015490 103.8922 256.3953 13.50966644 31595
